#aV2008  6 20  0  0   .00000000      96 DD+AD WGS84 FIT  NGA
## 1484 432000.00000000   900.00000000 54637  .0000000000000
+   31     2  3  4  5  6  7  8  9 10 11 12 13 14 15 16 17 18
+         19 20 21 22 23 24 25 26 27 28 29 30 31 32  0  0  0
+          0  0  0  0  0  0  0  0  0  0  0  0  0  0  0  0  0
+          0  0  0  0  0  0  0  0  0  0  0  0  0  0  0  0  0
+          0  0  0  0  0  0  0  0  0  0  0  0  0  0  0  0  0
++         0  0  0  0  0  0  0  0  0  0  0  0  0  0  0  0  0
++         0  0  0  0  0  0  0  0  0  0  0  0  0  0  0  0  0
++         0  0  0  0  0  0  0  0  0  0  0  0  0  0  0  0  0
++         0  0  0  0  0  0  0  0  0  0  0  0  0  0  0  0  0
++         0  0  0  0  0  0  0  0  0  0  0  0  0  0  0  0  0
%c cc cc ccc ccc cccc cccc cccc cccc ccccc ccccc ccccc ccccc
%c cc cc ccc ccc cccc cccc cccc cccc ccccc ccccc ccccc ccccc
%f  0.0000000  0.000000000  0.00000000000  0.000000000000000
%f  0.0000000  0.000000000  0.00000000000  0.000000000000000
%i    0    0    0    0      0      0      0      0         0
%i    0    0    0    0      0      0      0      0         0
/*      NGA, ST. LOUIS,MO.                                  
/*   EPHEMERIS COMPUTED FROM  3 DAYS OF DATA                
/* CCCCCCCCCCCCCCCCCCCCCCCCCCCCCCCCCCCCCCCCCCCCCCCCCCCCCCCCC
/* CCCCCCCCCCCCCCCCCCCCCCCCCCCCCCCCCCCCCCCCCCCCCCCCCCCCCCCCC
*  2008  6 20  5 15   .00000000                                                 
P  2 -13348.894796 -23008.513853  -3045.326054    205.763089                    
V  2   1163.532003  -4594.606621  30816.867466      -.008644                    
P  3  18011.044131  11786.981399 -16040.047447    244.535444                    
V  3 -19828.625711   2622.134731 -20318.253310       .051017                    
P  4  -5326.325213 -24742.688184   7322.347474    -95.275459                    
V  4   7121.776921   7258.124524  29673.343042      -.092332                    
P  5 -18758.070893   9682.288211  15756.755793   -386.435843                    
V  5   8154.911938 -19095.554910  21218.946378       .107524                    
P  6  12856.437659  14153.886555 -18230.290536    150.604133                    
V  6 -23717.217118    803.192422 -15955.533891       .057174                    
P  7  11956.697395  -9907.499765 -21569.739829    -17.716842                    
V  7  11866.049276  24614.652656  -4808.502549       .070075                    
P  8   3845.911672 -20191.057216 -16627.347211   -158.236879                    
V  8   9336.090990  18990.390214 -21465.195375      -.017510                    
P  9 -17467.419796  -7037.796564  18157.797996      1.590538                    
V  9  -9713.136064 -22310.054416 -17242.180486       .017226                    
P 10  -8414.026383 -13528.891972 -21336.964238     -2.332292                    
V 10  16584.934222 -21094.386729   7198.967793      -.002432                    
P 11  19439.079880   2138.367750  17944.629679     24.447944                    
V 11  11757.490679  20222.746690 -14682.456980      -.004629                    
P 12 -18621.352266   4038.831368  18549.267193   -358.304271                    
V 12  12322.397149 -19945.909418  16888.158996       .004864                    
P 13  20720.468376  -7055.055077 -15152.651042    260.541582                    
V 13  18619.331843   3827.320007  23884.206220       .016070                    
P 14  -4006.245833  14207.585715  22172.932773   -253.442954                    
V 14 -27615.782657  -3542.483325  -2831.521393       .043411                    
P 15 -24403.936939  -7258.462297  -7562.714025   -129.535117                    
V 15   9817.050903  -1981.825862 -29687.910594      -.061113                    
P 16   3649.344263  17659.080209 -19358.972296    120.493328                    
V 16 -15731.907460  19201.556204  14696.665549      -.015649                    
P 17   3472.271134 -14952.416988  21710.767968     38.621068                    
V 17  27306.803477   3093.673444  -2400.294756      -.000028                    
P 18 -17837.507206  19002.069425  -3781.372342   -165.480409                    
V 18    273.220789  -6178.245113 -31207.101180       .041800                    
P 19  24467.509626   8442.274110  -6307.735346     32.283560                    
V 19  -8406.475585   1358.511921 -30183.832573       .006601                    
P 20  19117.387731  -6053.846699  17278.775261    111.735079                    
V 20 -10825.243163  19512.276941  18725.269051      -.008193                    
P 21  -9261.095008  14894.460837 -19577.552325     60.689109                    
V 21 -11742.070356 -22758.943853 -12258.604640      -.011950                    
P 22  -9531.800003  23106.500361   9051.285240    211.482008                    
V 22  -9293.603791   7134.441048 -28542.440239       .002240                    
P 23  26397.528940   -301.301069  -4049.490793    360.273812                    
V 23   4782.394391   2691.777753  31269.943227       .020135                    
P 24 -15837.753059    815.922581 -21101.704894    103.207153                    
V 24  -9463.885075 -25571.163885   6337.865680       .030745                    
P 25  15189.302395  -3076.409486 -21189.847997   -174.611774                    
V 25  13441.692668  24302.471292   6179.826507      -.039863                    
P 26 -21978.920946 -10636.453513 -11586.060374    277.381870                    
V 26  13729.373970    868.204366 -27522.742261       .072958                    
P 27   9521.892520 -12385.112463 -20788.660409    196.908520                    
V 27  13937.032171  24266.007662  -7955.827247       .027490                    
P 28  10453.542339 -23065.516403   7800.571703    -20.249752                    
V 28   7854.746696  -5958.362042 -29938.279738      -.004077                    
P 29 -22994.285938   5782.229139 -11818.366724    -42.420254                    
V 29 -14843.145454  -4131.055666  26616.566374       .000946                    
P 30 -18491.449987  16391.158523   9261.454837     82.031028                    
V 30   4121.421327 -11974.493704  28475.514434       .018628                    
P 31   6724.561634  24867.603206   6431.535075    -24.012125                    
V 31  -5638.615624  -6110.045339  30582.411220      -.012261                    
P 32  14747.480149   5669.649264  21764.456692    299.561086                    
V 32 -16706.865546  20724.574111   6214.734935       .039922                    
EOF
